NOAA 1 [-]              
1 04793U 70106A   23024.14271205 -.00000022  00000+0  13352-3 0  9991
2 04793 101.5265  87.1336 0031454 252.1031 133.5934 12.54011229385735
NOAA 2 (ITOS-D) [-]     
1 06235U 72082A   23023.74521422 -.00000029  00000+0  10750-3 0  9999
2 06235 101.9791  12.5497 0004138  16.3359 156.3323 12.53156536299793
NOAA 3 [-]              
1 06920U 73086A   23023.81850795 -.00000042  00000+0  33128-4 0  9991
2 06920 102.2340  11.2094 0006422 245.4725 179.2453 12.40352381228306
NOAA 4 [-]              
1 07529U 74089A   23023.85764847 -.00000037  00000+0  53905-4 0  9996
2 07529 101.9416   9.3569 0009162  43.0918  15.9933 12.53164994204406
NOAA 5 [-]              
1 09057U 76077A   23023.66616807 -.00000015  00000+0  23418-3 0  9995
2 09057 102.1337 354.5646 0009853  92.1065  80.9590 12.37779227101214
TIROS N [-]             
1 11060U 78096A   23024.13891307  .00000334  00000+0  18203-3 0  9997
2 11060  98.6062  76.6943 0009951 223.7507 136.2881 14.18473432503134
NOAA 6 [-]              
1 11416U 79057A   23023.78036219  .00000667  00000+0  25526-3 0  9998
2 11416  98.6591  39.9346 0009773 334.0068  26.0625 14.33894535273308
NOAA 7 [-]              
1 12553U 81059A   23024.11798839  .00000134  00000+0  88862-4 0  9999
2 12553  98.9696  75.9336 0011135 203.8552 156.2108 14.17372259149271
NOAA 8 [-]              
1 13923U 83022A   23024.22021149  .00000368  00000+0  16349-3 0  9997
2 13923  98.7040  19.1027 0014051 285.3038  74.6591 14.28890086 74197
NOAA 9 [-]              
1 15427U 84123A   23024.52196765  .00000304  00000+0  17671-3 0  9990
2 15427  99.0745   5.6983 0013899 258.6974 211.1557 14.16276796968135
NOAA 10 [-]             
1 16969U 86073A   23024.19063132  .00000326  00000+0  14805-3 0  9992
2 16969  98.5905  11.5328 0012776  30.1977 340.5268 14.28275539892608
NOAA 11 [-]             
1 19531U 88089A   23023.84023033  .00000146  00000+0  95888-4 0  9997
2 19531  98.4483   6.0671 0010027 263.4702  96.5331 14.15351243772249
NOAA 12 [-]             
1 21263U 91032A   23023.53080959  .00000223  00000+0  11095-3 0  9993
2 21263  98.5250  22.2966 0014609  58.1962 302.0639 14.26051728648358
NOAA 13 [-]             
1 22739U 93050A   23023.83140426  .00000274  00000+0  16942-3 0  9995
2 22739  98.5338 357.9553 0010561  74.2108 286.0229 14.12907869518418
NOAA 14 [-]             
1 23455U 94089A   23023.51864132  .00000118  00000+0  83342-4 0  9992
2 23455  98.4335  43.1463 0010391  55.9719 304.2440 14.14234040448055
NOAA 15 [B]             
1 25338U 98030A   23024.48520118  .00000306  00000+0  14571-3 0  9990
2 25338  98.6231  55.8851 0010599  18.9579 341.1994 14.26229917284779
NOAA 16 [-]             
1 26536U 00055A   23023.77776047  .00000195  00000+0  12645-3 0  9992
2 26536  98.6070  79.7411 0009476 254.6350 105.3776 14.13379001151975
NOAA 17 [-]             
1 27453U 02032A   23024.23592388  .00000426  00000+0  20006-3 0  9991
2 27453  98.6998 332.2040 0011764 355.6155   4.4919 14.25202362 70310
NOAA 18 [B]             
1 28654U 05018A   23024.38132791  .00000334  00000+0  20322-3 0  9995
2 28654  98.9261  99.3921 0015054  69.1493 291.1289 14.12847554911264
NOAA 19 [+]             
1 33591U 09005A   23024.54968608  .00000297  00000+0  18511-3 0  9998
2 33591  99.1219  68.0418 0012976 288.0137  71.9620 14.12674403719661
SUOMI NPP [+]           
1 37849U 11061A   23024.46143583  .00000218  00000+0  12443-3 0  9992
2 37849  98.7562 325.1653 0001263  72.9954  35.8945 14.19540603582544
NOAA 20 [+]             
1 43013U 17073A   23024.47425449  .00000168  00000+0  10056-3 0  9998
2 43013  98.7400 324.7845 0001527 100.2896 259.8453 14.19549521268581
NOAA 21 (JPSS-2) [+]    
1 54234U 22150A   23023.78709173  .00000235  00000+0  13198-3 0  9994
2 54234  98.7038 324.1041 0001131  84.1833 275.9472 14.19560985 10569
